{"type": "FeatureCollection", "features": [ {"type": "Feature", "properties": {"norad_id": 30481, "name": "FENGYUN 1C DEB", "group": "fengyun-1c-debris", "lat": 32.14409679094131, "lon": 11.849164396639068, "alt_km": 917.9173416904732, "timestamp": "2025-12-26T04:40:06.063197+00:00", "meta": {"OBJECT_NAME": "FENGYUN 1C DEB", "OBJECT_ID": "1999-025AGT", "EPOCH": "2025-12-25T23:47:21.446016", "MEAN_MOTION": 14.39088092, "ECCENTRICITY": 0.02233004, "INCLINATION": 98.3365, "RA_OF_ASC_NODE": 16.938, "ARG_OF_PERICENTER": 219.9747, "MEAN_ANOMALY": 199.7445, "EPHEMERIS_TYPE": 0, "CLASSIFICATION_TYPE": "U", "NORAD_CAT_ID": 30481, "ELEMENT_SET_NO": 999, "REV_AT_EPOCH": 98674, "BSTAR": 0.000433879, "MEAN_MOTION_DOT": 1.744e-05, "MEAN_MOTION_DDOT": 0}, "tle": {"line1": "1 30481U 99025AGT 25359.99122044  .00001744  00000+0  43388-3 0  9990", "line2": "2 30481  98.3365  16.9380 0223300 219.9747 199.7445 14.39088092986745"}}, "geometry": {"type": "Point", "coordinates": [11.849164396639068, 32.14409679094131]}}, {"type": "Feature", "properties": {"norad_id": 30489, "name": "FENGYUN 1C DEB", "group": "fengyun-1c-debris", "lat": -21.55145013551294, "lon": -168.9463847584546, "alt_km": 752.9295589650519, "timestamp": "2025-12-26T04:40:06.063206+00:00", "meta": {"OBJECT_NAME": "FENGYUN 1C DEB", "OBJECT_ID": "1999-025AHB", "EPOCH": "2025-12-25T00:52:54.672960", "MEAN_MOTION": 14.15834256, "ECCENTRICITY": 0.01392075, "INCLINATION": 98.4679, "RA_OF_ASC_NODE": 13.3259, "ARG_OF_PERICENTER": 229.3596, "MEAN_ANOMALY": 195.1519, "EPHEMERIS_TYPE": 0, "CLASSIFICATION_TYPE": "U", "NORAD_CAT_ID": 30489, "ELEMENT_SET_NO": 999, "REV_AT_EPOCH": 97561, "BSTAR": 0.00023871893, "MEAN_MOTION_DOT": 4.74e-06, "MEAN_MOTION_DDOT": 0}, "tle": {"line1": "1 30489U 99025AHB 25359.03674390  .00000474  00000+0  23872-3 0  9994", "line2": "2 30489  98.4679  13.3259 0139207 229.3596 195.1519 14.15834256975618"}}, "geometry": {"type": "Point", "coordinates": [-168.9463847584546, -21.55145013551294]}}, {"type": "Feature", "properties": {"norad_id": 30490, "name": "FENGYUN 1C DEB", "group": "fengyun-1c-debris", "lat": 63.719878370383526, "lon": -29.27701764993945, "alt_km": 444.8868421662746, "timestamp": "2025-12-26T04:40:06.063217+00:00", "meta": {"OBJECT_NAME": "FENGYUN 1C DEB", "OBJECT_ID": "1999-025AHC", "EPOCH": "2025-12-25T14:03:21.692736", "MEAN_MOTION": 15.31098431, "ECCENTRICITY": 0.0045274, "INCLINATION": 98.3284, "RA_OF_ASC_NODE": 132.7823, "ARG_OF_PERICENTER": 69.6514, "MEAN_ANOMALY": 290.958, "EPHEMERIS_TYPE": 0, "CLASSIFICATION_TYPE": "U", "NORAD_CAT_ID": 30490, "ELEMENT_SET_NO": 999, "REV_AT_EPOCH": 99692, "BSTAR": 0.0037091, "MEAN_MOTION_DOT": 0.00116504, "MEAN_MOTION_DDOT": 0}, "tle": {"line1": "1 30490U 99025AHC 25359.58566774  .00116504  00000+0  37091-2 0  9991", "line2": "2 30490  98.3284 132.7823 0045274  69.6514 290.9580 15.31098431996924"}}, "geometry": {"type": "Point", "coordinates": [-29.27701764993945, 63.719878370383526]}}, {"type": "Feature", "properties": {"norad_id": 30492, "name": "FENGYUN 1C DEB", "group": "fengyun-1c-debris", "lat": -77.66596789806195, "lon": 112.81379374770837, "alt_km": 755.048596210735, "timestamp": "2025-12-26T04:40:06.063227+00:00", "meta": {"OBJECT_NAME": "FENGYUN 1C DEB", "OBJECT_ID": "1999-025AHE", "EPOCH": "2025-12-25T12:32:38.427072", "MEAN_MOTION": 14.52162952, "ECCENTRICITY": 0.0094077, "INCLINATION": 102.3249, "RA_OF_ASC_NODE": 22.6727, "ARG_OF_PERICENTER": 28.5159, "MEAN_ANOMALY": 332.1123, "EPHEMERIS_TYPE": 0, "CLASSIFICATION_TYPE": "U", "NORAD_CAT_ID": 30492, "ELEMENT_SET_NO": 999, "REV_AT_EPOCH": 97080, "BSTAR": 0.0032359, "MEAN_MOTION_DOT": 0.00013844, "MEAN_MOTION_DDOT": 0}, "tle": {"line1": "1 30492U 99025AHE 25359.52266698  .00013844  00000+0  32359-2 0  9994", "line2": "2 30492 102.3249  22.6727 0094077  28.5159 332.1123 14.52162952970800"}}, "geometry": {"type": "Point", "coordinates": [112.81379374770837, -77.66596789806195]}}, {"type": "Feature", "properties": {"norad_id": 30493, "name": "FENGYUN 1C DEB", "group": "fengyun-1c-debris", "lat": -73.35081499487227, "lon": -20.74335288399411, "alt_km": 891.3070990065125, "timestamp": "2025-12-26T04:40:06.063237+00:00", "meta": {"OBJECT_NAME": "FENGYUN 1C DEB", "OBJECT_ID": "1999-025AHF", "EPOCH": "2025-12-25T12:01:59.757312", "MEAN_MOTION": 13.93060167, "ECCENTRICITY": 0.0180587, "INCLINATION": 98.5717, "RA_OF_ASC_NODE": 188.9023, "ARG_OF_PERICENTER": 181.4613, "MEAN_ANOMALY": 198.0419, "EPHEMERIS_TYPE": 0, "CLASSIFICATION_TYPE": "U", "NORAD_CAT_ID": 30493, "ELEMENT_SET_NO": 999, "REV_AT_EPOCH": 95273, "BSTAR": 0.0023846, "MEAN_MOTION_DOT": 3.509e-05, "MEAN_MOTION_DDOT": 0}, "tle": {"line1": "1 30493U 99025AHF 25359.50138608  .00003509  00000+0  23846-2 0  9990", "line2": "2 30493  98.5717 188.9023 0180587 181.4613 198.0419 13.93060167952736"}}, "geometry": {"type": "Point", "coordinates": [-20.74335288399411, -73.35081499487227]}}, {"type": "Feature", "properties": {"norad_id": 30494, "name": "FENGYUN 1C DEB", "group": "fengyun-1c-debris", "lat": -53.943901696347176, "lon": -157.66866147390556, "alt_km": 880.4747358246959, "timestamp": "2025-12-26T04:40:06.063248+00:00", "meta": {"OBJECT_NAME": "FENGYUN 1C DEB", "OBJECT_ID": "1999-025AHG", "EPOCH": "2025-12-20T20:27:26.731008", "MEAN_MOTION": 13.79394652, "ECCENTRICITY": 0.0186172, "INCLINATION": 99.2815, "RA_OF_ASC_NODE": 30.0747, "ARG_OF_PERICENTER": 200.8117, "MEAN_ANOMALY": 158.5384, "EPHEMERIS_TYPE": 0, "CLASSIFICATION_TYPE": "U", "NORAD_CAT_ID": 30494, "ELEMENT_SET_NO": 999, "REV_AT_EPOCH": 94598, "BSTAR": 0.0010376, "MEAN_MOTION_DOT": 1.17e-05, "MEAN_MOTION_DDOT": 0}, "tle": {"line1": "1 30494U 99025AHG 25354.85239272  .00001170  00000+0  10376-2 0  9999", "line2": "2 30494  99.2815  30.0747 0186172 200.8117 158.5384 13.79394652945989"}}, "geometry": {"type": "Point", "coordinates": [-157.66866147390556, -53.943901696347176]}}, {"type": "Feature", "properties": {"norad_id": 30495, "name": "FENGYUN 1C DEB", "group": "fengyun-1c-debris", "lat": 73.29846422469137, "lon": 44.15037492544556, "alt_km": 1705.6016399910905, "timestamp": "2025-12-26T04:40:06.063258+00:00", "meta": {"OBJECT_NAME": "FENGYUN 1C DEB", "OBJECT_ID": "1999-025AHH", "EPOCH": "2025-12-24T16:58:36.050016", "MEAN_MOTION": 12.94432859, "ECCENTRICITY": 0.05978034, "INCLINATION": 102.2606, "RA_OF_ASC_NODE": 88.9275, "ARG_OF_PERICENTER": 242.2258, "MEAN_ANOMALY": 111.7007, "EPHEMERIS_TYPE": 0, "CLASSIFICATION_TYPE": "U", "NORAD_CAT_ID": 30495, "ELEMENT_SET_NO": 999, "REV_AT_EPOCH": 88828, "BSTAR": 0.0036779399, "MEAN_MOTION_DOT": 2.255e-05, "MEAN_MOTION_DDOT": 0}, "tle": {"line1": "1 30495U 99025AHH 25358.70736169  .00002255  00000+0  36779-2 0  9995", "line2": "2 30495 102.2606  88.9275 0597803 242.2258 111.7007 12.94432859888284"}}, "geometry": {"type": "Point", "coordinates": [44.15037492544556, 73.29846422469137]}}, {"type": "Feature", "properties": {"norad_id": 30496, "name": "FENGYUN 1C DEB", "group": "fengyun-1c-debris", "lat": -78.45784359539249, "lon": 38.41772574291987, "alt_km": 670.699699720537, "timestamp": "2025-12-26T04:40:06.063269+00:00", "meta": {"OBJECT_NAME": "FENGYUN 1C DEB", "OBJECT_ID": "1999-025AHJ", "EPOCH": "2025-12-25T16:15:04.353408", "MEAN_MOTION": 14.9444164, "ECCENTRICITY": 0.01297482, "INCLINATION": 98.7831, "RA_OF_ASC_NODE": 267.0474, "ARG_OF_PERICENTER": 55.8823, "MEAN_ANOMALY": 305.4624, "EPHEMERIS_TYPE": 0, "CLASSIFICATION_TYPE": "U", "NORAD_CAT_ID": 30496, "ELEMENT_SET_NO": 999, "REV_AT_EPOCH": 1337, "BSTAR": 0.00070076481, "MEAN_MOTION_DOT": 8.859e-05, "MEAN_MOTION_DDOT": 0}, "tle": {"line1": "1 30496U 99025AHJ 25359.67713372  .00008859  00000+0  70076-3 0  9999", "line2": "2 30496  98.7831 267.0474 0129748  55.8823 305.4624 14.94441640 13377"}}, "geometry": {"type": "Point", "coordinates": [38.41772574291987, -78.45784359539249]}}, {"type": "Feature", "properties": {"norad_id": 30498, "name": "FENGYUN 1C DEB", "group": "fengyun-1c-debris", "lat": 72.03875658332807, "lon": 21.458344473272707, "alt_km": 811.8319512759372, "timestamp": "2025-12-26T04:40:06.063279+00:00", "meta": {"OBJECT_NAME": "FENGYUN 1C DEB", "OBJECT_ID": "1999-025AHL", "EPOCH": "2025-12-25T15:21:36.438048", "MEAN_MOTION": 14.06138216, "ECCENTRICITY": 0.0103442, "INCLINATION": 99.2366, "RA_OF_ASC_NODE": 51.0229, "ARG_OF_PERICENTER": 120.6968, "MEAN_ANOMALY": 29.2426, "EPHEMERIS_TYPE": 0, "CLASSIFICATION_TYPE": "U", "NORAD_CAT_ID": 30498, "ELEMENT_SET_NO": 999, "REV_AT_EPOCH": 95950, "BSTAR": 0.0015912, "MEAN_MOTION_DOT": 2.7e-05, "MEAN_MOTION_DDOT": 0}, "tle": {"line1": "1 30498U 99025AHL 25359.64000507  .00002700  00000+0  15912-2 0  9993", "line2": "2 30498  99.2366  51.0229 0103442 120.6968  29.2426 14.06138216959501"}}, "geometry": {"type": "Point", "coordinates": [21.458344473272707, 72.03875658332807]}}, {"type": "Feature", "properties": {"norad_id": 30500, "name": "FENGYUN 1C DEB", "group": "fengyun-1c-debris", "lat": 37.228054841766216, "lon": -80.88506841277035, "alt_km": 784.6530088063137, "timestamp": "2025-12-26T04:40:06.063290+00:00", "meta": {"OBJECT_NAME": "FENGYUN 1C DEB", "OBJECT_ID": "1999-025AHN", "EPOCH": "2025-12-23T12:33:13.179744", "MEAN_MOTION": 14.25307164, "ECCENTRICITY": 0.00634561, "INCLINATION": 99.072, "RA_OF_ASC_NODE": 89.3806, "ARG_OF_PERICENTER": 85.4561, "MEAN_ANOMALY": 36.0873, "EPHEMERIS_TYPE": 0, "CLASSIFICATION_TYPE": "U", "NORAD_CAT_ID": 30500, "ELEMENT_SET_NO": 999, "REV_AT_EPOCH": 96835, "BSTAR": 0.002304924, "MEAN_MOTION_DOT": 5.5e-05, "MEAN_MOTION_DDOT": 0}, "tle": {"line1": "1 30500U 99025AHN 25357.52306921  .00005500  00000+0  23049-2 0  9992", "line2": "2 30500  99.0720  89.3806 0063456  85.4561  36.0873 14.25307164968355"}}, "geometry": {"type": "Point", "coordinates": [-80.88506841277035, 37.228054841766216]}}]}